GLOBALSTAR M067         
1 32263U 07048A   25330.61104545 -.00000067  00000+0  22604-3 0  9994
2 32263  51.9739 280.6620 0001351 354.7030 176.3410 12.40682024829648
GLOBALSTAR M070         
1 32264U 07048B   25330.47882567 -.00000066  00000+0  21066-3 0  9996
2 32264  51.9773 354.0934 0000388 124.1337  44.7509 12.62326337834165
GLOBALSTAR M079         
1 37188U 10054A   25330.52680154 -.00000086  00000+0  10193-3 0  9992
2 37188  52.0060   5.5988 0000063 163.6594   0.6190 12.62268799696953
GLOBALSTAR M074         
1 37189U 10054B   25330.36154892 -.00000092  00000+0  65563-4 0  9999
2 37189  52.0037   5.3987 0000366  83.1493 289.8206 12.62263637697546
GLOBALSTAR M076         
1 37190U 10054C   25330.58030244 -.00000085  00000+0  10485-3 0  9993
2 37190  52.0051   4.9202 0000257  47.4687 118.6556 12.62267655697288
GLOBALSTAR M077         
1 37191U 10054D   25330.20939015 -.00000078  00000+0  51891-4 0  9996
2 37191  52.0119 335.4002 0017573 301.8403 138.2887 11.82670055697408
